[{"OBJECT_NAME":"STARLINK-3514","OBJECT_ID":"2022-016T","EPOCH":"2026-03-09T22:37:42.417984","MEAN_MOTION":15.08834741,"ECCENTRICITY":0.00012618,"INCLINATION":53.2187,"RA_OF_ASC_NODE":317.9838,"ARG_OF_PERICENTER":87.8677,"MEAN_ANOMALY":272.246,"EPHEMERIS_TYPE":0,"CLASSIFICATION_TYPE":"U","NORAD_CAT_ID":51731,"ELEMENT_SET_NO":999,"REV_AT_EPOCH":22360,"BSTAR":7.881138e-6,"MEAN_MOTION_DOT":-1.62e-6,"MEAN_MOTION_DDOT":0},{"OBJECT_NAME":"ELECTRON KICK STAGE R\/B","OBJECT_ID":"2023-035A","EPOCH":"2026-03-09T00:22:03.988416","MEAN_MOTION":15.09409521,"ECCENTRICITY":0.00017263,"INCLINATION":44.1756,"RA_OF_ASC_NODE":311.3301,"ARG_OF_PERICENTER":9.8979,"MEAN_ANOMALY":350.1918,"EPHEMERIS_TYPE":0,"CLASSIFICATION_TYPE":"U","NORAD_CAT_ID":55908,"ELEMENT_SET_NO":999,"REV_AT_EPOCH":16322,"BSTAR":0.00066616987,"MEAN_MOTION_DOT":0.00010608,"MEAN_MOTION_DDOT":0}]
